[{"OBJECT_NAME":"STARLINK-2426","OBJECT_ID":"2021-018BB","EPOCH":"2026-03-09T17:33:00.521856","MEAN_MOTION":15.30201942,"ECCENTRICITY":0.00012544,"INCLINATION":53.1591,"RA_OF_ASC_NODE":244.8074,"ARG_OF_PERICENTER":73.0469,"MEAN_ANOMALY":287.067,"EPHEMERIS_TYPE":0,"CLASSIFICATION_TYPE":"U","NORAD_CAT_ID":47836,"ELEMENT_SET_NO":999,"REV_AT_EPOCH":27670,"BSTAR":0.00020717241,"MEAN_MOTION_DOT":5.782e-5,"MEAN_MOTION_DDOT":0},{"OBJECT_NAME":"PEGASUS DEB","OBJECT_ID":"1994-029AG","EPOCH":"2026-03-09T11:16:42.963744","MEAN_MOTION":15.37636263,"ECCENTRICITY":0.0031206,"INCLINATION":82.0362,"RA_OF_ASC_NODE":86.2933,"ARG_OF_PERICENTER":155.6019,"MEAN_ANOMALY":204.671,"EPHEMERIS_TYPE":0,"CLASSIFICATION_TYPE":"U","NORAD_CAT_ID":23986,"ELEMENT_SET_NO":999,"REV_AT_EPOCH":61542,"BSTAR":0.00061808813,"MEAN_MOTION_DOT":0.00023279,"MEAN_MOTION_DDOT":0}]
